IRIDIUM 106             
1 41917U 17003A   25273.48683101  .00000372  00000+0  12580-3 0  9993
2 41917  86.4037 197.0171 0002442  71.8855 288.2607 14.34219189455980
IRIDIUM 103             
1 41918U 17003B   25273.26483881  .00000346  00000+0  11648-3 0  9998
2 41918  86.4037 197.0111 0002575  88.5801 271.5689 14.34218056455974
IRIDIUM 109             
1 41919U 17003C   25273.27118225  .00000312  00000+0  10421-3 0  9998
2 41919  86.4037 197.0630 0002202  87.0715 273.0733 14.34219313455947
IRIDIUM 102             
1 41920U 17003D   25273.30922893  .00000731  00000+0  25387-3 0  9990
2 41920  86.4032 196.9765 0002169  84.0511 276.0932 14.34217516456032
IRIDIUM 105             
1 41921U 17003E   25273.62893237  .00000610  00000+0  21075-3 0  9991
2 41921  86.4036 165.3589 0002244  86.4221 273.7232 14.34220194457932
IRIDIUM 104             
1 41922U 17003F   25272.83354372  .00000581  00000+0  20033-3 0  9996
2 41922  86.4034 197.2131 0002284  96.6567 263.4889 14.34216758455953
IRIDIUM 114             
1 41923U 17003G   25273.25849686  .00000550  00000+0  18927-3 0  9996
2 41923  86.4038 197.0206 0002396  84.1771 275.9698 14.34217105455999
IRIDIUM 108             
1 41924U 17003H   25273.63562845  .00000221  00000+0  71927-4 0  9993
2 41924  86.4033 165.2504 0002051  80.7788 279.3640 14.34219278457902
